ONEWEB-0383             
1 49309U 21090AG  26066.18590843  .00000101  00000+0  23879-3 0  9998
2 49309  87.8995 310.0447 0001418  82.7167 277.4123 13.14502104214191
ONEWEB-0384             
1 49310U 21090AH  26066.16845068 -.00000007  00000+0 -49803-4 0  9993
2 49310  87.9182 294.8481 0001060  79.7149 280.4103 13.20807512216369
ONEWEB-0385             
1 49311U 21090AJ  26066.16916463  .00000064  00000+0  12573-3 0  9996
2 49311  87.9177 294.8091 0001407  79.4322 280.6970 13.20772419216334
ONEWEB-0386             
1 49312U 21090AK  26066.18651566  .00000068  00000+0  13476-3 0  9996
2 49312  87.9181 294.7903 0001352  81.7699 278.3588 13.20770356216352
ONEWEB-0387             
1 49313U 21090AL  26066.17072556  .00000024  00000+0  25930-4 0  9993
2 49313  87.9163 294.8316 0001631  72.9888 287.1424 13.20773691216356
ONEWEB-0388             
1 49314U 21090AM  26066.28260555  .00000039  00000+0  64544-4 0  9994
2 49314  87.9245 325.2716 0001507  76.7912 283.3389 13.19727360212975
ONEWEB-0389             
1 50469U 21132A   26066.29238977  .00000037  00000+0  62351-4 0  9990
2 50469  87.9147  26.1028 0001705  69.4010 290.7304 13.17648889204662
ONEWEB-0390             
1 50470U 21132B   26066.29405451  .00000075  00000+0  15894-3 0  9996
2 50470  87.9147  26.1028 0002092  79.0057 281.1310 13.17647328204660
ONEWEB-0391             
1 50471U 21132C   26066.29576601  .00000066  00000+0  13761-3 0  9994
2 50471  87.9147  26.1119 0002066  57.4013 302.7318 13.17649210204665
ONEWEB-0392             
1 50472U 21132D   26066.25020337 -.00000090  00000+0 -26429-3 0  9995
2 50472  87.9158  26.0808 0001777  67.7047 292.4273 13.17647653204698
ONEWEB-0393             
1 50473U 21132E   26066.29926312  .00000067  00000+0  14055-3 0  9992
2 50473  87.9154  26.0949 0001750  76.0487 284.0839 13.17650356204692
ONEWEB-0394             
1 50474U 21132F   26066.27159434  .00000089  00000+0  19267-3 0  9998
2 50474  87.9249 355.6802 0001668  73.2826 286.8489 13.18686801208163
ONEWEB-0395             
1 50475U 21132G   26066.31086911 -.00001059  00000+0 -30246-2 0  9992
2 50475  87.8858  41.3289 0001994  77.8192 282.3159 13.11404883202367
ONEWEB-0396             
1 50476U 21132H   26066.26499651  .00000083  00000+0  17852-3 0  9999
2 50476  87.9254 355.6934 0001740  75.9200 284.2125 13.18687152208207
ONEWEB-0397             
1 50477U 21132J   26066.27984226  .00000115  00000+0  25888-3 0  9992
2 50477  87.9251 355.6906 0001601  76.9741 283.1570 13.18686220208185
ONEWEB-0398             
1 50478U 21132K   26066.20234852 -.00000104  00000+0 -32824-3 0  9997
2 50478  87.8865  41.3303 0002206  80.4736 279.6641 13.11417707202247
ONEWEB-0399             
1 50479U 21132L   26065.65469926 -.00000446  00000+0 -12949-2 0  9992
2 50479  87.8861  41.4490 0001503  69.4307 290.6982 13.11417262202160
