[{"OBJECT_NAME":"ONEWEB-0383","OBJECT_ID":"2021-090AG","EPOCH":"2026-03-07T04:27:42.488352","MEAN_MOTION":13.14502104,"ECCENTRICITY":0.00014183,"INCLINATION":87.8995,"RA_OF_ASC_NODE":310.0447,"ARG_OF_PERICENTER":82.7167,"MEAN_ANOMALY":277.4123,"EPHEMERIS_TYPE":0,"CLASSIFICATION_TYPE":"U","NORAD_CAT_ID":49309,"ELEMENT_SET_NO":999,"REV_AT_EPOCH":21419,"BSTAR":0.00023879182,"MEAN_MOTION_DOT":1.01e-6,"MEAN_MOTION_DDOT":0},{"OBJECT_NAME":"ONEWEB-0384","OBJECT_ID":"2021-090AH","EPOCH":"2026-03-07T04:02:34.138752","MEAN_MOTION":13.20807512,"ECCENTRICITY":0.00010607,"INCLINATION":87.9182,"RA_OF_ASC_NODE":294.8481,"ARG_OF_PERICENTER":79.7149,"MEAN_ANOMALY":280.4103,"EPHEMERIS_TYPE":0,"CLASSIFICATION_TYPE":"U","NORAD_CAT_ID":49310,"ELEMENT_SET_NO":999,"REV_AT_EPOCH":21636,"BSTAR":-4.9802593e-5,"MEAN_MOTION_DOT":-7.0e-8,"MEAN_MOTION_DDOT":0},{"OBJECT_NAME":"ONEWEB-0385","OBJECT_ID":"2021-090AJ","EPOCH":"2026-03-07T04:03:35.824032","MEAN_MOTION":13.20772419,"ECCENTRICITY":0.00014071,"INCLINATION":87.9177,"RA_OF_ASC_NODE":294.8091,"ARG_OF_PERICENTER":79.4322,"MEAN_ANOMALY":280.697,"EPHEMERIS_TYPE":0,"CLASSIFICATION_TYPE":"U","NORAD_CAT_ID":49311,"ELEMENT_SET_NO":999,"REV_AT_EPOCH":21633,"BSTAR":0.00012573232,"MEAN_MOTION_DOT":6.4e-7,"MEAN_MOTION_DDOT":0},{"OBJECT_NAME":"ONEWEB-0386","OBJECT_ID":"2021-090AK","EPOCH":"2026-03-07T04:28:34.953024","MEAN_MOTION":13.20770356,"ECCENTRICITY":0.00013527,"INCLINATION":87.9181,"RA_OF_ASC_NODE":294.7903,"ARG_OF_PERICENTER":81.7699,"MEAN_ANOMALY":278.3588,"EPHEMERIS_TYPE":0,"CLASSIFICATION_TYPE":"U","NORAD_CAT_ID":49312,"ELEMENT_SET_NO":999,"REV_AT_EPOCH":21635,"BSTAR":0.00013476292,"MEAN_MOTION_DOT":6.8e-7,"MEAN_MOTION_DDOT":0},{"OBJECT_NAME":"ONEWEB-0387","OBJECT_ID":"2021-090AL","EPOCH":"2026-03-07T04:05:50.688384","MEAN_MOTION":13.20773691,"ECCENTRICITY":0.00016313,"INCLINATION":87.9163,"RA_OF_ASC_NODE":294.8316,"ARG_OF_PERICENTER":72.9888,"MEAN_ANOMALY":287.1424,"EPHEMERIS_TYPE":0,"CLASSIFICATION_TYPE":"U","NORAD_CAT_ID":49313,"ELEMENT_SET_NO":999,"REV_AT_EPOCH":21635,"BSTAR":2.5930231e-5,"MEAN_MOTION_DOT":2.4e-7,"MEAN_MOTION_DDOT":0},{"OBJECT_NAME":"ONEWEB-0388","OBJECT_ID":"2021-090AM","EPOCH":"2026-03-07T06:46:57.119520","MEAN_MOTION":13.1972736,"ECCENTRICITY":0.00015076,"INCLINATION":87.9245,"RA_OF_ASC_NODE":325.2716,"ARG_OF_PERICENTER":76.7912,"MEAN_ANOMALY":283.3389,"EPHEMERIS_TYPE":0,"CLASSIFICATION_TYPE":"U","NORAD_CAT_ID":49314,"ELEMENT_SET_NO":999,"REV_AT_EPOCH":21297,"BSTAR":6.454406e-5,"MEAN_MOTION_DOT":3.9e-7,"MEAN_MOTION_DDOT":0},{"OBJECT_NAME":"ONEWEB-0389","OBJECT_ID":"2021-132A","EPOCH":"2026-03-07T07:01:02.476128","MEAN_MOTION":13.17648889,"ECCENTRICITY":0.00017059,"INCLINATION":87.9147,"RA_OF_ASC_NODE":26.1028,"ARG_OF_PERICENTER":69.401,"MEAN_ANOMALY":290.7304,"EPHEMERIS_TYPE":0,"CLASSIFICATION_TYPE":"U","NORAD_CAT_ID":50469,"ELEMENT_SET_NO":999,"REV_AT_EPOCH":20466,"BSTAR":6.2350591e-5,"MEAN_MOTION_DOT":3.7e-7,"MEAN_MOTION_DDOT":0},{"OBJECT_NAME":"ONEWEB-0390","OBJECT_ID":"2021-132B","EPOCH":"2026-03-07T07:03:26.309664","MEAN_MOTION":13.17647328,"ECCENTRICITY":0.00020922,"INCLINATION":87.9147,"RA_OF_ASC_NODE":26.1028,"ARG_OF_PERICENTER":79.0057,"MEAN_ANOMALY":281.131,"EPHEMERIS_TYPE":0,"CLASSIFICATION_TYPE":"U","NORAD_CAT_ID":50470,"ELEMENT_SET_NO":999,"REV_AT_EPOCH":20466,"BSTAR":0.00015894423,"MEAN_MOTION_DOT":7.5e-7,"MEAN_MOTION_DDOT":0},{"OBJECT_NAME":"ONEWEB-0391","OBJECT_ID":"2021-132C","EPOCH":"2026-03-07T07:05:54.183264","MEAN_MOTION":13.1764921,"ECCENTRICITY":0.00020663,"INCLINATION":87.9147,"RA_OF_ASC_NODE":26.1119,"ARG_OF_PERICENTER":57.4013,"MEAN_ANOMALY":302.7318,"EPHEMERIS_TYPE":0,"CLASSIFICATION_TYPE":"U","NORAD_CAT_ID":50471,"ELEMENT_SET_NO":999,"REV_AT_EPOCH":20466,"BSTAR":0.00013761042,"MEAN_MOTION_DOT":6.6e-7,"MEAN_MOTION_DDOT":0},{"OBJECT_NAME":"ONEWEB-0392","OBJECT_ID":"2021-132D","EPOCH":"2026-03-07T06:00:17.571168","MEAN_MOTION":13.17647653,"ECCENTRICITY":0.00017778,"INCLINATION":87.9158,"RA_OF_ASC_NODE":26.0808,"ARG_OF_PERICENTER":67.7047,"MEAN_ANOMALY":292.4273,"EPHEMERIS_TYPE":0,"CLASSIFICATION_TYPE":"U","NORAD_CAT_ID":50472,"ELEMENT_SET_NO":999,"REV_AT_EPOCH":20469,"BSTAR":-0.00026428704,"MEAN_MOTION_DOT":-9.0e-7,"MEAN_MOTION_DDOT":0},{"OBJECT_NAME":"ONEWEB-0393","OBJECT_ID":"2021-132E","EPOCH":"2026-03-07T07:10:56.333568","MEAN_MOTION":13.17650356,"ECCENTRICITY":0.00017507,"INCLINATION":87.9154,"RA_OF_ASC_NODE":26.0949,"ARG_OF_PERICENTER":76.0487,"MEAN_ANOMALY":284.0839,"EPHEMERIS_TYPE":0,"CLASSIFICATION_TYPE":"U","NORAD_CAT_ID":50473,"ELEMENT_SET_NO":999,"REV_AT_EPOCH":20469,"BSTAR":0.00014054742,"MEAN_MOTION_DOT":6.7e-7,"MEAN_MOTION_DDOT":0},{"OBJECT_NAME":"ONEWEB-0394","OBJECT_ID":"2021-132F","EPOCH":"2026-03-07T06:31:05.750976","MEAN_MOTION":13.18686801,"ECCENTRICITY":0.00016684,"INCLINATION":87.9249,"RA_OF_ASC_NODE":355.6802,"ARG_OF_PERICENTER":73.2826,"MEAN_ANOMALY":286.8489,"EPHEMERIS_TYPE":0,"CLASSIFICATION_TYPE":"U","NORAD_CAT_ID":50474,"ELEMENT_SET_NO":999,"REV_AT_EPOCH":20816,"BSTAR":0.00019266603,"MEAN_MOTION_DOT":8.9e-7,"MEAN_MOTION_DDOT":0},{"OBJECT_NAME":"ONEWEB-0395","OBJECT_ID":"2021-132G","EPOCH":"2026-03-07T07:27:39.091104","MEAN_MOTION":13.11404883,"ECCENTRICITY":0.00019943,"INCLINATION":87.8858,"RA_OF_ASC_NODE":41.3289,"ARG_OF_PERICENTER":77.8192,"MEAN_ANOMALY":282.3159,"EPHEMERIS_TYPE":0,"CLASSIFICATION_TYPE":"U","NORAD_CAT_ID":50475,"ELEMENT_SET_NO":999,"REV_AT_EPOCH":20236,"BSTAR":-0.0030246299,"MEAN_MOTION_DOT":-1.059e-5,"MEAN_MOTION_DDOT":0},{"OBJECT_NAME":"ONEWEB-0396","OBJECT_ID":"2021-132H","EPOCH":"2026-03-07T06:21:35.698464","MEAN_MOTION":13.18687152,"ECCENTRICITY":0.000174,"INCLINATION":87.9254,"RA_OF_ASC_NODE":355.6934,"ARG_OF_PERICENTER":75.92,"MEAN_ANOMALY":284.2125,"EPHEMERIS_TYPE":0,"CLASSIFICATION_TYPE":"U","NORAD_CAT_ID":50476,"ELEMENT_SET_NO":999,"REV_AT_EPOCH":20820,"BSTAR":0.00017851695,"MEAN_MOTION_DOT":8.3e-7,"MEAN_MOTION_DDOT":0},{"OBJECT_NAME":"ONEWEB-0397","OBJECT_ID":"2021-132J","EPOCH":"2026-03-07T06:42:58.371264","MEAN_MOTION":13.1868622,"ECCENTRICITY":0.00016015,"INCLINATION":87.9251,"RA_OF_ASC_NODE":355.6906,"ARG_OF_PERICENTER":76.9741,"MEAN_ANOMALY":283.157,"EPHEMERIS_TYPE":0,"CLASSIFICATION_TYPE":"U","NORAD_CAT_ID":50477,"ELEMENT_SET_NO":999,"REV_AT_EPOCH":20818,"BSTAR":0.00025887657,"MEAN_MOTION_DOT":1.15e-6,"MEAN_MOTION_DDOT":0},{"OBJECT_NAME":"ONEWEB-0398","OBJECT_ID":"2021-132K","EPOCH":"2026-03-07T04:51:22.912128","MEAN_MOTION":13.11417707,"ECCENTRICITY":0.00022066,"INCLINATION":87.8865,"RA_OF_ASC_NODE":41.3303,"ARG_OF_PERICENTER":80.4736,"MEAN_ANOMALY":279.6641,"EPHEMERIS_TYPE":0,"CLASSIFICATION_TYPE":"U","NORAD_CAT_ID":50478,"ELEMENT_SET_NO":999,"REV_AT_EPOCH":20224,"BSTAR":-0.00032823697,"MEAN_MOTION_DOT":-1.04e-6,"MEAN_MOTION_DDOT":0},{"OBJECT_NAME":"ONEWEB-0399","OBJECT_ID":"2021-132L","EPOCH":"2026-03-06T15:42:46.016064","MEAN_MOTION":13.11417262,"ECCENTRICITY":0.00015032,"INCLINATION":87.8861,"RA_OF_ASC_NODE":41.449,"ARG_OF_PERICENTER":69.4307,"MEAN_ANOMALY":290.6982,"EPHEMERIS_TYPE":0,"CLASSIFICATION_TYPE":"U","NORAD_CAT_ID":50479,"ELEMENT_SET_NO":999,"REV_AT_EPOCH":20216,"BSTAR":-0.0012949472,"MEAN_MOTION_DOT":-4.46e-6,"MEAN_MOTION_DDOT":0}]
